{
  "type": "FeatureCollection",
  "features": [
    {
      "type": "Feature",
      "id": "feat-nsr-devon-edm",
      "properties": {
        "route_id": "nsr-devon-edmonton",
        "river_name": "North Saskatchewan River",
        "trip_name": "Devon Voyageur Park to Riverdale",
        "difficulty_class": 1,
        "recommended_duration_days": 1,
        "distance_km": 47
      },
      "geometry": {
        "type": "LineString",
        "coordinates": [
          [
            -113.74899,
            53.3711
          ],
          [
            -113.74898,
            53.37111
          ],
          [
            -113.7482,
            53.3721
          ],
          [
            -113.74364,
            53.37237
          ],
          [
            -113.73753,
            53.37186
          ],
          [
            -113.73016,
            53.37067
          ],
          [
            -113.72355,
            53.37064
          ],
          [
            -113.71771,
            53.37136
          ],
          [
            -113.71147,
            53.37208
          ],
          [
            -113.70648,
            53.37083
          ],
          [
            -113.70456,
            53.36796
          ],
          [
            -113.70524,
            53.3644
          ],
          [
            -113.70554,
            53.36188
          ],
          [
            -113.70543,
            53.35869
          ],
          [
            -113.70254,
            53.35507
          ],
          [
            -113.6971,
            53.35426
          ],
          [
            -113.69204,
            53.3547
          ],
          [
            -113.68823,
            53.35671
          ],
          [
            -113.68584,
            53.35971
          ],
          [
            -113.68487,
            53.36192
          ],
          [
            -113.68559,
            53.36422
          ],
          [
            -113.68721,
            53.36679
          ],
          [
            -113.69005,
            53.36958
          ],
          [
            -113.69185,
            53.37229
          ],
          [
            -113.69235,
            53.37505
          ],
          [
            -113.69288,
            53.37775
          ],
          [
            -113.6912,
            53.38073
          ],
          [
            -113.68651,
            53.38321
          ],
          [
            -113.68063,
            53.38417
          ],
          [
            -113.67543,
            53.3831
          ],
          [
            -113.67085,
            53.3818
          ],
          [
            -113.66502,
            53.3807
          ],
          [
            -113.66388,
            53.38091
          ],
          [
            -113.66387,
            53.38091
          ],
          [
            -113.66387,
            53.38091
          ],
          [
            -113.66387,
            53.38091
          ],
          [
            -113.66388,
            53.38092
          ],
          [
            -113.66387,
            53.38092
          ],
          [
            -113.66387,
            53.38092
          ],
          [
            -113.66392,
            53.38102
          ],
          [
            -113.6638,
            53.38091
          ],
          [
            -113.66385,
            53.38087
          ],
          [
            -113.66387,
            53.38092
          ],
          [
            -113.66385,
            53.38087
          ],
          [
            -113.66378,
            53.38095
          ],
          [
            -113.66389,
            53.38085
          ],
          [
            -113.66384,
            53.38087
          ],
          [
            -113.66317,
            53.3807
          ],
          [
            -113.65797,
            53.38177
          ],
          [
            -113.65392,
            53.3827
          ],
          [
            -113.65029,
            53.38511
          ],
          [
            -113.64738,
            53.38795
          ],
          [
            -113.64594,
            53.39097
          ],
          [
            -113.64519,
            53.3939
          ],
          [
            -113.64513,
            53.39673
          ],
          [
            -113.64634,
            53.39974
          ],
          [
            -113.64739,
            53.40246
          ],
          [
            -113.64918,
            53.40495
          ],
          [
            -113.65139,
            53.40808
          ],
          [
            -113.65403,
            53.41062
          ],
          [
            -113.65538,
            53.4139
          ],
          [
            -113.65735,
            53.41748
          ],
          [
            -113.65862,
            53.42068
          ],
          [
            -113.65909,
            53.42352
          ],
          [
            -113.65959,
            53.42566
          ],
          [
            -113.66029,
            53.42913
          ],
          [
            -113.6551,
            53.43187
          ],
          [
            -113.64953,
            53.43347
          ],
          [
            -113.64386,
            53.43617
          ],
          [
            -113.6409,
            53.43954
          ],
          [
            -113.63844,
            53.44285
          ],
          [
            -113.63597,
            53.44621
          ],
          [
            -113.63205,
            53.44887
          ],
          [
            -113.62847,
            53.45119
          ],
          [
            -113.6242,
            53.45395
          ],
          [
            -113.62034,
            53.456
          ],
          [
            -113.61637,
            53.45864
          ],
          [
            -113.61216,
            53.46072
          ],
          [
            -113.6082,
            53.46313
          ],
          [
            -113.60543,
            53.46625
          ],
          [
            -113.6051,
            53.46941
          ],
          [
            -113.60716,
            53.47223
          ],
          [
            -113.61063,
            53.47414
          ],
          [
            -113.61488,
            53.47535
          ],
          [
            -113.61981,
            53.47653
          ],
          [
            -113.62436,
            53.47781
          ],
          [
            -113.62682,
            53.47986
          ],
          [
            -113.62817,
            53.48255
          ],
          [
            -113.62845,
            53.48512
          ],
          [
            -113.62666,
            53.48742
          ],
          [
            -113.6233,
            53.48904
          ],
          [
            -113.6178,
            53.4894
          ],
          [
            -113.6124,
            53.48849
          ],
          [
            -113.60761,
            53.48597
          ],
          [
            -113.60278,
            53.48309
          ],
          [
            -113.59701,
            53.48082
          ],
          [
            -113.59152,
            53.48147
          ],
          [
            -113.58831,
            53.48387
          ],
          [
            -113.58731,
            53.48665
          ],
          [
            -113.58697,
            53.48978
          ],
          [
            -113.58747,
            53.49276
          ],
          [
            -113.58911,
            53.49573
          ],
          [
            -113.59027,
            53.49808
          ],
          [
            -113.58949,
            53.50094
          ],
          [
            -113.58547,
            53.50317
          ],
          [
            -113.58061,
            53.50473
          ],
          [
            -113.57528,
            53.50561
          ],
          [
            -113.56981,
            53.50591
          ],
          [
            -113.56399,
            53.50592
          ],
          [
            -113.55774,
            53.50623
          ],
          [
            -113.55213,
            53.50698
          ],
          [
            -113.54738,
            53.50871
          ],
          [
            -113.54364,
            53.51115
          ],
          [
            -113.54202,
            53.51409
          ],
          [
            -113.54238,
            53.51709
          ],
          [
            -113.54401,
            53.51994
          ],
          [
            -113.54681,
            53.52202
          ],
          [
            -113.55053,
            53.52323
          ],
          [
            -113.5542,
            53.52506
          ],
          [
            -113.5569,
            53.52761
          ],
          [
            -113.55834,
            53.53021
          ],
          [
            -113.55808,
            53.53292
          ],
          [
            -113.55668,
            53.53512
          ],
          [
            -113.55329,
            53.53709
          ],
          [
            -113.5494,
            53.53817
          ],
          [
            -113.54381,
            53.53831
          ],
          [
            -113.53925,
            53.53712
          ],
          [
            -113.53524,
            53.535
          ],
          [
            -113.53041,
            53.53285
          ],
          [
            -113.52467,
            53.53196
          ],
          [
            -113.51883,
            53.53139
          ],
          [
            -113.51305,
            53.53094
          ],
          [
            -113.50768,
            53.53021
          ],
          [
            -113.50292,
            53.52888
          ],
          [
            -113.49842,
            53.52736
          ],
          [
            -113.49376,
            53.52693
          ],
          [
            -113.49112,
            53.5282
          ],
          [
            -113.48977,
            53.5303
          ],
          [
            -113.48876,
            53.53326
          ],
          [
            -113.48822,
            53.53622
          ],
          [
            -113.48551,
            53.5385
          ],
          [
            -113.48165,
            53.53988
          ],
          [
            -113.47624,
            53.54032
          ],
          [
            -113.47061,
            53.54028
          ],
          [
            -113.46465,
            53.54024
          ],
          [
            -113.46302,
            53.54208
          ],
          [
            -113.46415,
            53.54477
          ],
          [
            -113.46665,
            53.54715
          ],
          [
            -113.46845,
            53.54903
          ],
          [
            -113.46898,
            53.54958
          ],
          [
            -113.46897,
            53.54952
          ],
          [
            -113.46912,
            53.54949
          ]
        ]
      }
    },
    {
      "type": "Feature",
      "id": "feat-bow-cochrane-bown",
      "properties": {
        "route_id": "bow-cochrane-bowness",
        "river_name": "Bow River",
        "trip_name": "Cochrane to Bowness Park",
        "difficulty_class": 2,
        "recommended_duration_days": 1,
        "distance_km": 26
      },
      "geometry": {
        "type": "LineString",
        "coordinates": [
          [
            -114.4712,
            51.1834
          ],
          [
            -114.44,
            51.175
          ],
          [
            -114.4,
            51.16
          ],
          [
            -114.36,
            51.14
          ],
          [
            -114.32,
            51.12
          ],
          [
            -114.28,
            51.11
          ],
          [
            -114.2215,
            51.0965
          ]
        ]
      }
    },
    {
      "type": "Feature",
      "id": "feat-kan-widow-canoe",
      "properties": {
        "route_id": "kan-widowmaker-canoemeadows",
        "river_name": "Kananaskis River",
        "trip_name": "Widow Maker to Canoe Meadows",
        "difficulty_class": 3,
        "recommended_duration_days": 1,
        "distance_km": 3.5
      },
      "geometry": {
        "type": "LineString",
        "coordinates": [
          [
            -115.0345,
            51.0954
          ],
          [
            -115.0335,
            51.098
          ],
          [
            -115.031,
            51.103
          ],
          [
            -115.026,
            51.109
          ],
          [
            -115.021,
            51.1152
          ]
        ]
      }
    },
    {
      "type": "Feature",
      "id": "feat-rdr-red-joffre",
      "properties": {
        "route_id": "rdr-reddeer-joffre",
        "river_name": "Red Deer River",
        "trip_name": "Red Deer to Joffre Bridge",
        "difficulty_class": 1,
        "recommended_duration_days": 1,
        "distance_km": 20.5
      },
      "geometry": {
        "type": "LineString",
        "coordinates": [
          [
            -113.8967,
            52.2743
          ],
          [
            -113.84,
            52.29
          ],
          [
            -113.78,
            52.285
          ],
          [
            -113.72,
            52.3
          ],
          [
            -113.67,
            52.32
          ],
          [
            -113.6212,
            52.3364
          ]
        ]
      }
    },
    {
      "type": "Feature",
      "id": "feat-rdr-tolman-bleriot",
      "properties": {
        "route_id": "rdr-tolman-bleriot",
        "river_name": "Red Deer River",
        "trip_name": "Tolman Bridge to Bleriot Ferry",
        "difficulty_class": 1,
        "recommended_duration_days": 2,
        "distance_km": 46.5
      },
      "geometry": {
        "type": "LineString",
        "coordinates": [
          [
            -113.0125,
            51.8345
          ],
          [
            -112.98,
            51.78
          ],
          [
            -112.95,
            51.72
          ],
          [
            -112.92,
            51.65
          ],
          [
            -112.8798,
            51.5721
          ]
        ]
      }
    }
  ]
}